OBJECT_NAME,OBJECT_ID,EPOCH,MEAN_MOTION,ECCENTRICITY,INCLINATION,RA_OF_ASC_NODE,ARG_OF_PERICENTER,MEAN_ANOMALY,EPHEMERIS_TYPE,CLASSIFICATION_TYPE,NORAD_CAT_ID,ELEMENT_SET_NO,REV_AT_EPOCH,BSTAR,MEAN_MOTION_DOT,MEAN_MOTION_DDOT
STARLINK-36287,2026-025R,2026-06-05T15:26:53.907072,15.33477904,.0000984,97.2839,268.1231,88.6780,271.4575,0,U,67708,999,1950,.7577E-3,.24491E-3,0
STARLINK-36698,2026-025S,2026-06-05T07:25:19.517088,15.33461964,.0001385,97.2868,267.8169,95.6433,264.4968,0,U,67709,999,1944,.70895E-3,.22894E-3,0
STARLINK-36344,2026-025T,2026-06-04T17:54:51.564096,15.33457326,.00002699,97.2838,267.1997,84.2091,275.9182,0,U,67710,999,1936,.10781551E-2,.34906E-3,0
STARLINK-36687,2026-025U,2026-06-05T13:33:22.029120,15.33455247,.000116,97.2871,268.0836,89.1561,270.9815,0,U,67711,999,1949,.81697E-3,.26401E-3,0
STARLINK-36708,2026-025W,2026-06-05T13:31:14.392128,15.33453436,.0001234,97.2864,267.1684,82.6246,277.5136,0,U,67713,999,1942,.80177E-3,.25905E-3,0
STARLINK-36718,2026-025Y,2026-06-05T06:30:30.725280,15.33456245,.0002944,97.2872,267.7182,129.8254,230.3248,0,U,67715,999,1943,.64692E-3,.20877E-3,0
STARLINK-36715,2026-025Z,2026-06-05T13:29:27.097152,15.33464206,.0001622,97.2882,267.9360,90.9168,269.2260,0,U,67716,999,1947,.9542E-3,.30875E-3,0
STARLINK-36385,2026-025AA,2026-06-05T13:56:51.232992,15.33460901,.0001144,97.2862,268.0574,87.9984,272.1389,0,U,67717,999,1948,.75198E-3,.24292E-3,0
STARLINK-36772,2026-026A,2026-06-05T09:39:12.553632,15.33440750,.0000497,97.2836,209.6984,72.1643,287.9654,0,U,67721,999,1756,.68352E-3,.22053E-3,0
STARLINK-36796,2026-026B,2026-06-05T09:35:17.426400,15.33443118,.0000793,97.2839,209.7022,278.0215,82.0938,0,U,67722,999,1756,.79065E-3,.25535E-3,0
STARLINK-36369,2026-026C,2026-06-05T09:31:22.581696,15.33445366,.0000494,97.2834,209.7054,263.2397,96.8789,0,U,67723,999,1756,.72248E-3,.23321E-3,0
STARLINK-36752,2026-026D,2026-06-05T15:43:17.935680,15.33485799,.0000872,97.2827,209.9641,228.8161,131.3007,0,U,67724,999,1760,.71439E-3,.23088E-3,0
STARLINK-36754,2026-026E,2026-06-05T09:23:32.684064,15.33440249,.0000495,97.2846,209.7139,356.8528,3.2711,0,U,67725,999,1756,.64915E-3,.20937E-3,0
STARLINK-36755,2026-026F,2026-06-05T09:19:37.784064,15.33444646,.0000367,97.2832,209.7159,2.9582,357.1663,0,U,67726,999,1756,.63292E-3,.20413E-3,0
STARLINK-36741,2026-026G,2026-06-05T09:15:42.967008,15.33445632,.000101,97.2841,209.7188,80.2474,279.8883,0,U,67727,999,1756,.47645E-3,.15338E-3,0
STARLINK-36757,2026-026H,2026-06-05T01:21:57.824064,15.33450192,.0002104,97.2813,209.3991,98.1884,261.9597,0,U,67728,999,1751,.7535E-3,.24334E-3,0
STARLINK-36751,2026-026J,2026-06-05T01:14:08.809440,15.33433468,.00006393,97.2816,209.4078,100.4666,259.6649,0,U,67729,999,1751,.78358964E-3,.25298E-3,0
STARLINK-36747,2026-026K,2026-06-05T01:18:02.897280,15.33453440,.00016149,97.2822,209.4049,92.5444,267.5984,0,U,67730,999,1751,.79226221E-3,.25596E-3,0
STARLINK-36315,2026-026L,2026-06-05T01:10:12.848448,15.33446017,.00012838,97.2811,209.4113,82.9986,277.1403,0,U,67731,999,1751,.63657962E-3,.20533E-3,0
STARLINK-36260,2026-026M,2026-06-04T17:16:27.201792,15.33460585,.0000542,97.2806,209.0929,84.7519,275.3785,0,U,67732,999,1746,.34057E-3,.10941E-3,0
STARLINK-36746,2026-026N,2026-06-05T02:36:21.096000,15.33449450,.0002151,97.2810,209.4776,130.0174,230.1258,0,U,67733,999,1752,.67666E-3,.21837E-3,0
STARLINK-36749,2026-026P,2026-06-05T02:32:26.139840,15.33453004,.0001739,97.2801,209.4846,130.7690,229.3704,0,U,67734,999,1752,.70424E-3,.22735E-3,0
STARLINK-36691,2026-026Q,2026-06-05T10:14:26.784096,15.33445181,.0000442,97.2845,209.8177,62.3394,297.7893,0,U,67735,999,1757,.50238E-3,.16178E-3,0
STARLINK-36317,2026-026R,2026-06-05T10:18:21.552768,15.33448199,.000013,97.2844,209.8147,117.6833,242.4423,0,U,67736,999,1757,.61129E-3,.19713E-3,0
STARLINK-36330,2026-026S,2026-06-05T02:20:41.393184,15.33445147,.0000381,97.2842,209.5010,123.2082,236.9197,0,U,67737,999,1752,.81916E-3,.26463E-3,0
STARLINK-36327,2026-026T,2026-06-05T10:06:36.857088,15.33444308,.000012,97.2835,209.8252,294.1372,65.9859,0,U,67738,999,1757,.58647E-3,.18905E-3,0
STARLINK-36329,2026-026U,2026-06-05T09:43:07.132224,15.33445969,.0000373,97.2841,209.8494,235.2690,124.8517,0,U,67739,999,1757,.62231E-3,.20069E-3,0
STARLINK-36737,2026-026V,2026-06-05T10:02:41.938944,15.33442752,.0000147,97.2838,209.8286,314.1167,46.0064,0,U,67740,999,1757,.5997E-3,.19333E-3,0
