STARLINK-36287          
1 67708U 26025R   26156.64367948  .00024491  00000+0  75770-3 0  9998
2 67708  97.2839 268.1231 0000984  88.6780 271.4575 15.33477904 19508
STARLINK-36698          
1 67709U 26025S   26156.30925367  .00022894  00000+0  70895-3 0  9995
2 67709  97.2868 267.8169 0001385  95.6433 264.4968 15.33461964 19446
STARLINK-36344          
1 67710U 26025T   26155.74643014  .00034906  00000+0  10782-2 0  9995
2 67710  97.2838 267.1997 0000269  84.2091 275.9182 15.33457326 19364
STARLINK-36687          
1 67711U 26025U   26156.56483830  .00026401  00000+0  81697-3 0  9990
2 67711  97.2871 268.0836 0001160  89.1561 270.9815 15.33455247 19493
STARLINK-36708          
1 67713U 26025W   26156.56336102  .00025905  00000+0  80177-3 0  9991
2 67713  97.2864 267.1684 0001234  82.6246 277.5136 15.33453436 19428
STARLINK-36718          
1 67715U 26025Y   26156.27118895  .00020877  00000+0  64692-3 0  9995
2 67715  97.2872 267.7182 0002944 129.8254 230.3248 15.33456245 19433
STARLINK-36715          
1 67716U 26025Z   26156.56211918  .00030875  00000+0  95420-3 0  9990
2 67716  97.2882 267.9360 0001622  90.9168 269.2260 15.33464206 19474
STARLINK-36385          
1 67717U 26025AA  26156.58114853  .00024292  00000+0  75198-3 0  9999
2 67717  97.2862 268.0574 0001144  87.9984 272.1389 15.33460901 19487
STARLINK-36772          
1 67721U 26026A   26156.40222863  .00022053  00000+0  68352-3 0  9994
2 67721  97.2836 209.6984 0000497  72.1643 287.9654 15.33440750 17563
STARLINK-36796          
1 67722U 26026B   26156.39950725  .00025535  00000+0  79065-3 0  9999
2 67722  97.2839 209.7022 0000793 278.0215  82.0938 15.33443118 17562
STARLINK-36369          
1 67723U 26026C   26156.39678914  .00023321  00000+0  72248-3 0  9994
2 67723  97.2834 209.7054 0000494 263.2397  96.8789 15.33445366 17562
STARLINK-36752          
1 67724U 26026D   26156.65506870  .00023088  00000+0  71439-3 0  9996
2 67724  97.2827 209.9641 0000872 228.8161 131.3007 15.33485799 17602
STARLINK-36754          
1 67725U 26026E   26156.39135051  .00020937  00000+0  64915-3 0  9998
2 67725  97.2846 209.7139 0000495 356.8528   3.2711 15.33440249 17569
STARLINK-36755          
1 67726U 26026F   26156.38863176  .00020413  00000+0  63292-3 0  9990
2 67726  97.2832 209.7159 0000367   2.9582 357.1663 15.33444646 17566
STARLINK-36741          
1 67727U 26026G   26156.38591397  .00015338  00000+0  47645-3 0  9998
2 67727  97.2841 209.7188 0001010  80.2474 279.8883 15.33445632 17564
STARLINK-36757          
1 67728U 26026H   26156.05691926  .00024334  00000+0  75350-3 0  9992
2 67728  97.2813 209.3991 0002104  98.1884 261.9597 15.33450192 17516
STARLINK-36751          
1 67729U 26026J   26156.05149085  .00025298  00000+0  78359-3 0  9999
2 67729  97.2816 209.4078 0000639 100.4666 259.6649 15.33433468 17512
STARLINK-36747          
1 67730U 26026K   26156.05420020  .00025596  00000+0  79226-3 0  9997
2 67730  97.2822 209.4049 0001614  92.5444 267.5984 15.33453440 17510
STARLINK-36315          
1 67731U 26026L   26156.04875982  .00020533  00000+0  63658-3 0  9996
2 67731  97.2811 209.4113 0001283  82.9986 277.1403 15.33446017 17512
STARLINK-36260          
1 67732U 26026M   26155.71975928  .00010941  00000+0  34057-3 0  9994
2 67732  97.2806 209.0929 0000542  84.7519 275.3785 15.33460585 17460
STARLINK-36746          
1 67733U 26026N   26156.10857750  .00021837  00000+0  67666-3 0  9999
2 67733  97.2810 209.4776 0002151 130.0174 230.1258 15.33449450 17529
STARLINK-36749          
1 67734U 26026P   26156.10585810  .00022735  00000+0  70424-3 0  9999
2 67734  97.2801 209.4846 0001739 130.7690 229.3704 15.33453004 17525
STARLINK-36691          
1 67735U 26026Q   26156.42669889  .00016178  00000+0  50238-3 0  9999
2 67735  97.2845 209.8177 0000442  62.3394 297.7893 15.33445181 17576
STARLINK-36317          
1 67736U 26026R   26156.42941612  .00019713  00000+0  61129-3 0  9996
2 67736  97.2844 209.8147 0000130 117.6833 242.4423 15.33448199 17577
STARLINK-36330          
1 67737U 26026S   26156.09770131  .00026463  00000+0  81916-3 0  9992
2 67737  97.2842 209.5010 0000381 123.2082 236.9197 15.33445147 17520
STARLINK-36327          
1 67738U 26026T   26156.42125992  .00018905  00000+0  58647-3 0  9996
2 67738  97.2835 209.8252 0000120 294.1372  65.9859 15.33444308 17573
STARLINK-36329          
1 67739U 26026U   26156.40494366  .00020069  00000+0  62231-3 0  9997
2 67739  97.2841 209.8494 0000373 235.2690 124.8517 15.33445969 17578
STARLINK-36737          
1 67740U 26026V   26156.41854096  .00019333  00000+0  59970-3 0  9998
2 67740  97.2838 209.8286 0000147 314.1167  46.0064 15.33442752 17579
